BEIDOU-3 M14 (C33)      
1 43623U 18072B   24255.05618576  .00000019  00000+0  00000+0 0  9990
2 43623  56.0647  84.0093 0003140   5.4651 354.6024  1.86231459 40659
BEIDOU-3 M16 (C35)      
1 43647U 18078A   24255.21841117 -.00000058  00000+0  00000+0 0  9993
2 43647  54.6482 322.4545 0005816  14.4426 345.6387  1.86232251 40179
BEIDOU-3 M15 (C34)      
1 43648U 18078B   24255.34754006 -.00000057  00000+0  00000+0 0  9997
2 43648  54.6438 322.4526 0002504  22.1733 337.9023  1.86232301 40197
BEIDOU-3 G1 (C59)       
1 43683U 18085A   24254.86021791 -.00000273  00000+0  00000+0 0  9998
2 43683   2.3963 106.4405 0002979  17.9760 315.6422  1.00275393 21596
COSMOS 2529 (757)       
1 43687U 18086A   24255.35764724  .00000061  00000+0  00000+0 0  9992
2 43687  64.2985 214.3565 0010954 260.2577  99.6121  2.13102001 45566
BEIDOU-3 M17 (C36)      
1 43706U 18093A   24253.35107973  .00000047  00000+0  00000+0 0  9991
2 43706  54.2087 204.2138 0009567 286.9442  72.9344  1.86228445 39517
BEIDOU-3 M18 (C37)      
1 43707U 18093B   24255.36355346  .00000038  00000+0  00000+0 0  9994
2 43707  54.2092 204.1373 0007898 315.0096  44.9116  1.86229927 39543
GPS BIII-1  (PRN 04)    
1 43873U 18109A   24253.63167296  .00000008  00000+0  00000+0 0  9996
2 43873  55.3278 117.6906 0030457 192.2946   8.6734  2.00559652 42074
BEIDOU-3 IGSO-1 (C38)   
1 44204U 19023A   24254.86719962 -.00000188  00000+0  00000+0 0  9990
2 44204  57.7717  44.3308 0024127 205.1335 172.7798  1.00275941 19906
BEIDOU-2 G8 (C01)       
1 44231U 19027A   24254.96823005 -.00000242  00000+0  00000+0 0  9990
2 44231   1.6832  74.3278 0002816 179.0129 230.2590  1.00270830 19612
COSMOS 2534 (758)       
1 44299U 19030A   24254.49902716  .00000065  00000+0  00000+0 0  9995
2 44299  64.3716 214.3472 0012872 280.2046 275.2060  2.13102086 41181
BEIDOU-3 IGSO-2 (C39)   
1 44337U 19035A   24255.41528498 -.00000150  00000+0  00000+0 0  9993
2 44337  55.1825 164.5152 0034793 202.9800 252.0681  1.00270492 19245
GPS BIII-2  (PRN 18)    
1 44506U 19056A   24254.43055699 -.00000086  00000+0  00000+0 0  9991
2 44506  55.8354 356.7150 0046490 190.6961 132.6700  2.00572879 37136
BEIDOU-3 M24 (C46)      
1 44542U 19061A   24254.35941095  .00000045  00000+0  00000+0 0  9996
2 44542  54.4362 204.4826 0008429 351.4259   8.5449  1.86229421 33789
BEIDOU-3 M23 (C45)      
1 44543U 19061B   24255.29264862  .00000039  00000+0  00000+0 0  9994
2 44543  54.4346 204.4200 0005667 336.5558 201.6573  1.86229593 33790
BEIDOU-3 IGSO-3 (C40)   
1 44709U 19073A   24254.49512159 -.00000144  00000+0  00000+0 0  9995
2 44709  55.9045 287.8216 0041464 190.4638 169.5333  1.00276626 17994
BEIDOU-3 M22 (C44)      
1 44793U 19078A   24255.27858922 -.00000058  00000+0  00000+0 0  9995
2 44793  54.4958 322.3740 0004530  21.8149 338.2691  1.86232232 32660
BEIDOU-3 M21 (C43)      
1 44794U 19078B   24254.87121735 -.00000060  00000+0  00000+0 0  9999
2 44794  54.4696 322.3624 0002515   9.4232 350.6460  1.86232709 32657
COSMOS 2544 (759)       
1 44850U 19088A   24255.20315535  .00000045  00000+0  00000+0 0  9996
2 44850  65.2272  95.2799 0011430 249.2884 110.6643  2.13102126 36978
BEIDOU-3 M19 (C41)      
1 44864U 19090A   24254.54355660  .00000015  00000+0  00000+0 0  9990
2 44864  55.9962  84.2003 0015408 281.3278  51.5286  1.86231808 32223
BEIDOU-3 M20 (C42)      
1 44865U 19090B   24255.55523517  .00000024  00000+0  00000+0 0  9991
2 44865  55.9986  84.1999 0013055 296.5320  84.3130  1.86231683 32228
BEIDOU-3 G2 (C60)       
1 45344U 20017A   24255.02696113 -.00000135  00000+0  00000+0 0  9994
2 45344   2.4260  32.6709 0003073 172.3640 235.2561  1.00272477 16819
COSMOS 2545 (760)       
1 45358U 20018A   24255.39996795 -.00000057  00000+0  00000+0 0  9992
2 45358  64.7069 334.9573 0010993 238.2729 121.6771  2.13102522 34941
BEIDOU-3 G3 (C61)       
1 45807U 20040A   24254.89926650 -.00000348  00000+0  00000+0 0  9996
2 45807   0.9325  50.9980 0002975 348.5397  25.1321  1.00274369 15628
GPS BIII-3  (PRN 23)    
1 45854U 20041A   24255.58188653 -.00000011  00000+0  00000+0 0  9996
2 45854  56.1968  54.0376 0047185 193.5442 176.0955  2.00571817 31122
GALAXY 30 (WAAS/PRN 135)
1 46114U 20056C   24254.41403663  .00000044  00000+0  00000+0 0  9999
2 46114   0.0198 150.5611 0002017  19.0456 204.3691  1.00268304    10
COSMOS 2547 (705K)      
1 46805U 20075A   24254.64813977  .00000064  00000+0  00000+0 0  9997
2 46805  64.6009 214.0090 0008418 241.4121 118.4966  2.13102840 30179
GPS BIII-4  (PRN 14)    
1 46826U 20078A   24254.82776765  .00000066  00000+0  00000+0 0  9998
2 46826  54.1523 236.9288 0049261 198.9574 322.0419  2.00560426 28580
GPS BIII-5  (PRN 11)    
1 48859U 21054A   24254.32037258 -.00000086  00000+0  00000+0 0  9996
2 48859  55.3622 358.3318 0018110 220.2036 117.1084  2.00553160 23814
QZS-1R (QZSS/PRN 196)   
1 49336U 21096A   24255.47858064 -.00000227  00000+0  00000+0 0  9993
2 49336  36.1193  89.2207 0743229 269.6137 298.5116  1.00292993 10546
GSAT0223 (GALILEO 27)   
1 49809U 21116A   24253.75586699 -.00000085  00000+0  00000+0 0  9994
2 49809  57.2950 359.0927 0003618 200.4081 164.1118  1.70476366 17187
GSAT0224 (GALILEO 28)   
1 49810U 21116B   24254.77097350 -.00000083  00000+0  00000+0 0  9998
2 49810  57.2959 359.0640 0002836 186.4975 193.5387  1.70476447 17225
COSMOS 2557 (706K)      
1 52984U 22075A   24255.28307198 -.00000060  00000+0  00000+0 0  9995
2 52984  64.6359 337.0835 0012490 273.3836  86.5284  2.13102287 16983
COSMOS 2559 (707K)      
1 54031U 22130A   24254.28771850 -.00000064  00000+0  00000+0 0  9995
2 54031  64.6081 337.2328 0007811 220.3218 139.6752  2.13101594 14940
COSMOS 2564 (761)       
1 54377U 22161A   24254.00892694  .00000066  00000+0  00000+0 0  9993
2 54377  64.7423 214.1503 0010847 223.9354 135.9708  2.13102155 13881
GPS BIII-6  (PRN 28)    
1 55268U 23009A   24251.59649917  .00000021  00000+0  00000+0 0  9995
2 55268  55.0856 173.9381 0001528  65.8222 149.4240  2.00558960 12259
BEIDOU-3 G4             
1 56564U 23066A   24254.89976834 -.00000106  00000+0  00000+0 0  9990
2 56564   1.9156 288.4290 0006093 227.5648 318.3197  1.00271019  4945
IRNSS-1J (NVS-01)       
1 56759U 23076A   24254.96527611 -.00000332  00000+0  00000+0 0  9991
2 56759   3.7842 264.2702 0005084 343.3110 219.9783  1.00272648  4747
COSMOS 2569 (703K)      
1 57517U 23114A   24255.43353680  .00000047  00000+0  00000+0 0  9995
2 57517  64.9552  94.3903 0008794 295.4674  64.5164  2.13103936  8542
BEIDOU-3 M25            
1 58654U 23207A   24255.49103626  .00000020  00000+0  00000+0 0  9991
2 58654  55.1816  84.1238 0000091 235.8756 124.1887  1.86232289  4857
BEIDOU-3 M26            
1 58655U 23207B   24253.67931735  .00000005  00000+0  00000+0 0  9993
2 58655  55.1820  84.1710 0001538 223.4588 136.5918  1.86231888  4802
GSAT0225 (GALILEO 29)   
1 59598U 24079A   24254.49317024  .00000020  00000+0  00000+0 0  9995
2 59598  54.7417 119.1224 0002243 156.9861  43.3298  1.70474203  2327
GSAT0227 (GALILEO 30)   
1 59600U 24079C   24253.17706582  .00000019  00000+0  00000+0 0  9992
2 59600  54.7362 119.1594 0002909 105.1956 254.9320  1.70474274  2357
